[{"OBJECT_NAME":"TYVAK-182A","OBJECT_ID":"2021-034D","EPOCH":"2026-03-09T17:04:17.866560","MEAN_MOTION":15.0515042,"ECCENTRICITY":0.00048625,"INCLINATION":97.5843,"RA_OF_ASC_NODE":129.3711,"ARG_OF_PERICENTER":316.565,"MEAN_ANOMALY":43.5193,"EPHEMERIS_TYPE":0,"CLASSIFICATION_TYPE":"U","NORAD_CAT_ID":48271,"ELEMENT_SET_NO":999,"REV_AT_EPOCH":26486,"BSTAR":0.00050672592,"MEAN_MOTION_DOT":7.163e-5,"MEAN_MOTION_DDOT":0},{"OBJECT_NAME":"STARLINK-4317","OBJECT_ID":"2022-077R","EPOCH":"2026-03-10T00:00:02.999808","MEAN_MOTION":15.0405779,"ECCENTRICITY":0.00013405,"INCLINATION":97.6024,"RA_OF_ASC_NODE":250.4886,"ARG_OF_PERICENTER":90.6985,"MEAN_ANOMALY":78.9101,"EPHEMERIS_TYPE":0,"CLASSIFICATION_TYPE":"U","NORAD_CAT_ID":53058,"ELEMENT_SET_NO":999,"REV_AT_EPOCH":577,"BSTAR":0.0028198644,"MEAN_MOTION_DOT":0.00039151,"MEAN_MOTION_DDOT":0}]
